NORAD_CAT_ID,OBJECT_NAME,OBJECT_TYPE,EPOCH,MEAN_MOTION,ECCENTRICITY,INCLINATION,RA_OF_ASC_NODE,ARG_OF_PERICENTER,MEAN_ANOMALY,BSTAR,MEAN_MOTION_DOT,MEAN_MOTION_DDOT,TLE_LINE0,TLE_LINE1,TLE_LINE2,SEMIMAJOR_AXIS,PERIOD,APOGEE,PERIGEE,DECAYED
53919.0,STARLINK-5023,PAYLOAD,2023-01-17 23:41:39,15.08836901,0.0001633,53.2165,61.7284,59.4102,300.7051,-9.7434e-05,-1.838e-05,0.0,0 STARLINK-5023,1 53919U 22119AK  23017.98726549 -.00001838  00000-0 -97434-4 0  9998,2 53919  53.2165  61.7284 0001633  59.4102 300.7051 15.08836901 18290,6917.89,95.438,540.885,538.625,0.0
53919.0,STARLINK-5023,PAYLOAD,2023-01-18 09:13:57,15.08846899,0.0001345,53.2166,59.9418,81.354,278.7604,0.00012322,1.674e-05,0.0,0 STARLINK-5023,1 53919U 22119AK  23018.38468910  .00001674  00000-0  12322-3 0  9996,2 53919  53.2166  59.9418 0001345  81.3540 278.7604 15.08846899 18351,6917.859,95.437,540.655,538.794,0.0
53919.0,STARLINK-5023,PAYLOAD,2023-01-18 23:32:25,15.08833525,0.0001585999999999,53.2157,57.2656,61.7737,298.3415,0.00027791,4.137e-05,0.0,0 STARLINK-5023,1 53919U 22119AK  23018.98084975  .00004137  00000-0  27791-3 0  9990,2 53919  53.2157  57.2656 0001586  61.7737 298.3415 15.08833525 18443,6917.9,95.438,540.862,538.668,0.0
53919.0,STARLINK-5023,PAYLOAD,2023-01-19 12:15:29,15.08853146,0.0001357,53.2171,54.8847,63.9516,296.1616,0.00017745,2.538e-05,0.0,0 STARLINK-5023,1 53919U 22119AK  23019.51076261  .00002538  00000-0  17745-3 0  9990,2 53919  53.2171  54.8847 0001357  63.9516 296.1616 15.08853146 18944,6917.84,95.437,540.644,538.766,0.0
53919.0,STARLINK-5023,PAYLOAD,2023-01-20 02:33:59,15.08836174,0.0001149,53.2176,52.2082,75.2812,284.8307,-0.00011666,-2.144e-05,0.0,0 STARLINK-5023,1 53919U 22119AK  23020.10694348 -.00002144  00000-0 -11666-3 0  9990,2 53919  53.2176  52.2082 0001149  75.2812 284.8307 15.08836174 18613,6917.892,95.438,540.552,538.962,0.0
53919.0,STARLINK-5023,PAYLOAD,2023-01-20 08:55:31,15.08845526,0.0001409999999999,53.2169,51.0216,88.8626,271.2528,-3.7713e-05,-8.88e-06,0.0,0 STARLINK-5023,1 53919U 22119AK  23020.37189465 -.00000888  00000-0 -37713-4 0  9993,2 53919  53.2169  51.0216 0001410  88.8626 271.2528 15.08845526 18655,6917.863,95.437,540.7040000000001,538.753,0.0
53919.0,STARLINK-5023,PAYLOAD,2023-01-21 02:24:46,15.088331,0.0001671,53.2174,47.7541,112.3443,247.7727,-6.6162e-05,-1.341e-05,0.0,0 STARLINK-5023,1 53919U 22119AK  23021.10054178 -.00001341  00000-0 -66162-4 0  9992,2 53919  53.2174  47.7541 0001671 112.3443 247.7727 15.08833100 18769,6917.901,95.438,540.922,538.61,0.0
53919.0,STARLINK-5023,PAYLOAD,2023-01-21 08:46:18,15.08840587,0.00015,53.2173,46.5633,99.1594,260.9568,-3.5722000000000003e-06,-3.45e-06,0.0,0 STARLINK-5023,1 53919U 22119AK  23021.36549588 -.00000345  00000-0 -35722-5 0  9996,2 53919  53.2173  46.5633 0001500  99.1594 260.9568 15.08840587 18809,6917.879,95.438,540.781,538.706,0.0
53919.0,STARLINK-5023,PAYLOAD,2023-01-21 11:57:04,15.08850742,0.0001416999999999,53.217,45.9663,87.8939,272.2216,-1.8068e-05,-5.76e-06,0.0,0 STARLINK-5023,1 53919U 22119AK  23021.49797054 -.00000576  00000-0 -18068-4 0  9992,2 53919  53.2170  45.9663 0001417  87.8939 272.2216 15.08850742 18828,6917.848000000001,95.437,540.693,538.732,0.0
53919.0,STARLINK-5023,PAYLOAD,2023-01-22 10:12:28,15.08842185,0.0001322,53.2185,41.8004,90.8385,269.2758,0.00015775,2.224e-05,0.0,0 STARLINK-5023,1 53919U 22119AK  23022.42533083  .00002224  00000-0  15775-3 0  9997,2 53919  53.2185  41.8004 0001322  90.8385 269.2758 15.08842185 18966,6917.874,95.437,540.653,538.8240000000001,0.0
53919.0,STARLINK-5023,PAYLOAD,2023-01-22 18:09:25,15.08834105,0.0001155999999999,53.2179,40.3191,110.0971,250.0146,-3.372500000000001e-07,-2.93e-06,0.0,0 STARLINK-5023,1 53919U 22119AK  23022.75653980 -.00000293  00000-0 -33725-6 0  9996,2 53919  53.2179  40.3191 0001156 110.0971 250.0146 15.08834105 19010,6917.898,95.438,540.563,538.964,0.0
53919.0,STARLINK-5023,PAYLOAD,2023-01-22 22:55:35,15.08822016,0.0001365,53.2171,39.4241,99.2938,260.8208,-1.2806e-06,-3.08e-06,0.0,0 STARLINK-5023,1 53919U 22119AK  23022.95526909 -.00000308  00000-0 -12806-5 0  9991,2 53919  53.2171  39.4241 0001365  99.2938 260.8208 15.08822016 19049,6917.935,95.439,540.745,538.856,0.0
53919.0,STARLINK-5023,PAYLOAD,2023-01-23 10:03:16,15.08833875,0.0001513,53.2172,37.3407,75.942,284.17400000000004,2.0311e-05,3.5e-07,0.0,0 STARLINK-5023,1 53919U 22119AK  23023.41894411  .00000035  00000-0  20311-4 0  9993,2 53919  53.2172  37.3407 0001513  75.9420 284.1740 15.08833875 19116,6917.899,95.438,540.811,538.717,0.0
53919.0,STARLINK-5023,PAYLOAD,2023-01-24 06:43:17,15.0884677,0.0001217,53.217,33.4731,106.0467,254.0659,-2.3542e-05,-6.63e-06,0.0,0 STARLINK-5023,1 53919U 22119AK  23024.28005926 -.00000663  00000-0 -23542-4 0  9992,2 53919  53.2170  33.4731 0001217 106.0467 254.0659 15.08846770 19246,6917.86,95.437,540.567,538.883,0.0
53919.0,STARLINK-5023,PAYLOAD,2023-01-24 22:37:09,15.08829066,0.0001211999999999,53.2164,30.5008,102.3092,257.8036,8.9862e-05,1.142e-05,0.0,0 STARLINK-5023,1 53919U 22119AK  23024.94246706  .00001142  00000-0  89862-4 0  9996,2 53919  53.2164  30.5008 0001212 102.3092 257.8036 15.08829066 19342,6917.914000000001,95.438,540.617,538.94,0.0
53919.0,STARLINK-5023,PAYLOAD,2023-01-25 09:44:50,15.08840534,0.0001278,53.2173,28.4184,114.4352,245.6774,9.9477e-05,1.296e-05,0.0,0 STARLINK-5023,1 53919U 22119AK  23025.40614040  .00001296  00000-0  99477-4 0  9991,2 53919  53.2173  28.4184 0001278 114.4352 245.6774 15.08840534 19413,6917.879,95.438,540.628,538.86,0.0
53919.0,STARLINK-5023,PAYLOAD,2023-01-25 17:41:46,15.08839455,0.0001094,53.2168,26.9299,113.1966,246.9141,1.1232e-05,-1.09e-06,0.0,0 STARLINK-5023,1 53919U 22119AK  23025.73734334 -.00000109  00000-0  11232-4 0  9992,2 53919  53.2168  26.9299 0001094 113.1966 246.9141 15.08839455 19883,6917.882,95.438,540.504,538.99,0.0
53919.0,STARLINK-5023,PAYLOAD,2023-01-26 03:14:05,15.08838449,0.0001198,53.2164,25.1477,97.7141,262.3987,6.4923e-05,7.46e-06,0.0,0 STARLINK-5023,1 53919U 22119AK  23026.13478467  .00000746  00000-0  64923-4 0  9990,2 53919  53.2164  25.1477 0001198  97.7141 262.3987 15.08838449 19528,6917.885,95.438,540.5790000000001,538.9209999999999,0.0
53919.0,STARLINK-5023,PAYLOAD,2023-01-27 09:26:24,15.0884469,0.0001094,53.2169,19.498,87.838,272.2737,6.1071e-05,6.84e-06,0.0,0 STARLINK-5023,1 53919U 22119AK  23027.39333930  .00000684  00000-0  61071-4 0  9996,2 53919  53.2169  19.4980 0001094  87.8380 272.2737 15.08844690 19717,6917.866,95.437,540.488,538.974,0.0
53919.0,STARLINK-5023,PAYLOAD,2023-01-28 02:55:39,15.08834007,0.0001119,53.2175,16.2284,96.9922,263.1198,4.4663e-06,-2.17e-06,0.0,0 STARLINK-5023,1 53919U 22119AK  23028.12198999 -.00000217  00000-0  44663-5 0  9994,2 53919  53.2175  16.2284 0001119  96.9922 263.1198 15.08834007 19820,6917.899,95.438,540.538,538.99,0.0
53919.0,STARLINK-5023,PAYLOAD,2023-01-28 09:17:12,15.08841023,0.0001007,53.217,15.0383,90.411,269.6997,1.8224e-05,2e-08,0.0,0 STARLINK-5023,1 53919U 22119AK  23028.38694521  .00000002  00000-0  18224-4 0  9998,2 53919  53.2170  15.0383 0001007  90.4110 269.6997 15.08841023 19864,6917.877,95.437,540.439,539.046,0.0
53919.0,STARLINK-5023,PAYLOAD,2023-01-29 21:51:04,15.08832602,0.0001181,53.2185,8.2005,101.8451,258.2674,8.1771e-05,1.014e-05,0.0,0 STARLINK-5023,1 53919U 22119AK  23029.91047000  .00001014  00000-0  81771-4 0  9993,2 53919  53.2185   8.2005 0001181 101.8451 258.2674 15.08832602 20516,6917.903,95.438,540.585,538.951,0.0
53919.0,STARLINK-5023,PAYLOAD,2023-01-29 23:26:27,15.08834884,0.0001032,53.2179,7.9024,98.4872,261.6237,2.89e-05,1.72e-06,0.0,0 STARLINK-5023,1 53919U 22119AK  23029.97671095  .00000172  00000-0  28900-4 0  9995,2 53919  53.2179   7.9024 0001032  98.4872 261.6237 15.08834884 20101,6917.896,95.438,540.475,539.047,0.0
53919.0,STARLINK-5023,PAYLOAD,2023-01-30 08:58:46,15.08840847,9.67e-05,53.2175,6.1178,92.2185,267.8918,6.3673e-05,7.26e-06,0.0,0 STARLINK-5023,1 53919U 22119AK  23030.37414662  .00000726  00000-0  63673-4 0  9997,2 53919  53.2175   6.1178 0000967  92.2185 267.8918 15.08840847 20585,6917.878,95.438,540.412,539.074,0.0
53919.0,STARLINK-5023,PAYLOAD,2023-01-31 02:28:01,15.08840341,0.0001115,53.2179,2.8459,88.4759,271.6361,-1.1958e-05,-4.78e-06,0.0,0 STARLINK-5023,1 53919U 22119AK  23031.10279123 -.00000478  00000-0 -11958-4 0  9995,2 53919  53.2179   2.8459 0001115  88.4759 271.6361 15.08840341 20690,6917.879,95.438,540.516,538.973,0.0
53919.0,STARLINK-5023,PAYLOAD,2023-02-01 03:54:10,15.08850863,0.0001286,53.2183,358.088,81.6468,278.467,0.00010138,1.326e-05,0.0,0 STARLINK-5023,1 53919U 22119AK  23032.16261873  .00001326  00000-0  10138-3 0  9994,2 53919  53.2183 358.0880 0001286  81.6468 278.4670 15.08850863 20430,6917.847,95.437,540.602,538.823,0.0
53919.0,STARLINK-5023,PAYLOAD,2023-02-02 03:44:58,15.08836114,0.0001358,53.2187,353.6291,84.5801,275.5346,-2.8523e-05,-7.42e-06,0.0,0 STARLINK-5023,1 53919U 22119AK  23033.15623252 -.00000742  00000-0 -28523-4 0  9998,2 53919  53.2187 353.6291 0001358  84.5801 275.5346 15.08836114 20581,6917.892,95.438,540.697,538.818,0.0
53919.0,STARLINK-5023,PAYLOAD,2023-02-02 06:55:44,15.08838444,0.0001489,53.2191,353.0329,86.5467,273.5695,-6.1289e-06,-3.86e-06,0.0,0 STARLINK-5023,1 53919U 22119AK  23033.28871066 -.00000386  00000-0 -61289-5 0  9991,2 53919  53.2191 353.0329 0001489  86.5467 273.5695 15.08838444 21020,6917.885,95.438,540.78,538.72,0.0
53919.0,STARLINK-5023,PAYLOAD,2023-02-03 03:35:43,15.0885962,0.0001373,53.2182,349.1669,85.2089,274.906,6.258e-05,7.09e-06,0.0,0 STARLINK-5023,1 53919U 22119AK  23034.14981126  .00000709  00000-0  62580-4 0  9997,2 53919  53.2182 349.1669 0001373  85.2089 274.9060 15.08859620 20738,6917.82,95.436,540.635,538.736,0.0
